[{"OBJECT_NAME":"YAOGAN-43 01D","OBJECT_ID":"2024-148D","EPOCH":"2026-03-09T10:27:16.254720","MEAN_MOTION":15.28369377,"ECCENTRICITY":0.00025569,"INCLINATION":35.001,"RA_OF_ASC_NODE":61.7102,"ARG_OF_PERICENTER":326.2473,"MEAN_ANOMALY":33.808,"EPHEMERIS_TYPE":0,"CLASSIFICATION_TYPE":"U","NORAD_CAT_ID":60461,"ELEMENT_SET_NO":999,"REV_AT_EPOCH":8700,"BSTAR":0.00037765912,"MEAN_MOTION_DOT":0.00010676,"MEAN_MOTION_DDOT":0},{"OBJECT_NAME":"STARLINK-32537","OBJECT_ID":"2024-207M","EPOCH":"2026-03-09T01:55:55.651872","MEAN_MOTION":15.27569636,"ECCENTRICITY":0.00015585,"INCLINATION":42.9996,"RA_OF_ASC_NODE":289.0978,"ARG_OF_PERICENTER":273.0497,"MEAN_ANOMALY":87.0176,"EPHEMERIS_TYPE":0,"CLASSIFICATION_TYPE":"U","NORAD_CAT_ID":61923,"ELEMENT_SET_NO":999,"REV_AT_EPOCH":7458,"BSTAR":0.0010489138,"MEAN_MOTION_DOT":0.00028705,"MEAN_MOTION_DDOT":0}]
